{"type":"FeatureCollection","features":[{"type":"Feature","id":100,"properties":{"ID_0":86,"ISO":"DEU","NAME_0":"Germany","ID_1":2,"NAME_1":"Bayern","ID_2":7,"NAME_2":"Oberbayern","ID_3":84,"NAME_3":"Munich Städte","NL_NAME_3":null,"VARNAME_3":"München","TYPE_3":"Kreisfreie Städte","ENGTYPE_3":"Urban district"},"geometry":{"type":"Polygon","coordinates":[[[11.407519340515194,48.198219299316406],[11.490948677063102,48.2164192199707],[11.502309799194336,48.24607849121094],[11.557639122009277,48.2198600769043],[11.58549022674572,48.227191925048885],[11.590870857238883,48.20859146118164],[11.629929542541447,48.227020263671875],[11.652010917663631,48.21207046508795],[11.629410743713379,48.17499923706049],[11.701639175415153,48.17842102050787],[11.679020881652946,48.14134216308594],[11.728899955749569,48.13370132446295],[11.717629432678336,48.118869781494254],[11.695430755615178,48.11896896362305],[11.717419624328613,48.100280761718864],[11.68401908874506,48.08927917480469],[11.689409255981559,48.07439041137701],[11.589739799499455,48.08971023559582],[11.511869430542049,48.056678771972656],[11.47323989868164,48.07915115356451],[11.468048095703182,48.127418518066406],[11.434829711914062,48.135009765625114],[11.395899772644157,48.12036895751953],[11.396050453186149,48.14263153076183],[11.362829208373967,48.1539306640625],[11.407519340515194,48.198219299316406]]]}}]}