{
  "type": "FeatureCollection",
  "features": [
    {
      "type": "Feature",
      "geometry": {
        "coordinates": [
          11.67683635,
          48.15014656
        ],
        "type": "Point"
      },
      "properties": {
        "name": "Golfclub München-Riem"
      }
    },
    {
      "type": "Feature",
      "geometry": {
        "coordinates": [
          11.542710484521464,
          48.09243475765825
        ],
        "type": "Point"
      },
      "properties": {
        "name": "Münchener Golf Club e.V. - Golfanlage Thalkirchen"
      }
    }
  ]
}